[
    {
        "Altitude(m)": 622205.8975955602,
        "Argument of Periapsis(deg)": 0.0,
        "Eccentricity": 0.0,
        "Inclination(deg)": 60.0,
        "Latitude(deg)": -52.162518504258315,
        "Longitude(deg)": -47.299509528893786,
        "Mean Anomaly(deg)": -114.5455,
        "RAAN(deg)": 184.99999999999997,
        "Satellite Name": "Test1 829",
        "Satellite Number": 829,
        "Semi-Major Axis(m)": 6980739.136638005,
        "Time(s)": 0
    },
    {
        "Altitude(m)": 622344.8036674893,
        "Argument of Periapsis(deg)": 0.00010418945913296404,
        "Eccentricity": 0.0,
        "Inclination(deg)": 60.0,
        "Latitude(deg)": -52.52009706333612,
        "Longitude(deg)": -46.5182944547501,
        "Mean Anomaly(deg)": -113.92539385453817,
        "RAAN(deg)": 184.99957995086024,
        "Satellite Name": "Test1 829",
        "Satellite Number": 829,
        "Semi-Major Axis(m)": 6980739.136638005,
        "Time(s)": 10
    }
]